COSMOS 2425 (716)       
1 29670U 06062A   19021.84131465  .00000022  00000-0  10000-3 0  9991
2 29670  65.1742 285.1427 0022948 345.5376  72.3005  2.13104794 93974
COSMOS 2426 (717)       
1 29671U 06062B   19021.84925789  .00000022  00000-0  10000-3 0  9992
2 29671  65.1915 285.2467 0016352 165.3089 112.8474  2.13103182 93973
COSMOS 2433 (720)       
1 32275U 07052A   19022.22468998 -.00000016  00000-0  10000-3 0  9997
2 32275  65.7890  46.0208 0005208 260.7655 281.6743  2.13104575 87499
COSMOS 2432 (719)       
1 32276U 07052B   19021.71632932 -.00000012  00000-0  10000-3 0  9998
2 32276  65.8006  46.1199 0011899 321.1183 142.7311  2.13103838 87489
COSMOS 2434 (721)       
1 32393U 07065A   19021.57325385  .00000025  00000-0  00000+0 0  9995
2 32393  64.7897 284.0227 0003105  87.8501 202.4004  2.13102980 86187
COSMOS 2436 (723)       
1 32395U 07065C   19021.50565403  .00000025  00000-0  10000-3 0  9992
2 32395  64.7990 284.0778 0016947 358.5724 291.3838  2.13104342 86116
COSMOS 2456 (730)       
1 36111U 09070A   19021.92055292  .00000037  00000-0  00000+0 0  9994
2 36111  64.1939 163.6253 0003023 347.4633  22.0426  2.13102886 70868
COSMOS 2457 (733)       
1 36112U 09070B   19021.68265993  .00000036  00000-0  00000+0 0  9998
2 36112  64.1765 163.5395 0006629 150.1013 162.6772  2.13101536 70853
COSMOS 2458 (734)       
1 36113U 09070C   19022.51147700  .00000039  00000-0  10000-3 0  9995
2 36113  64.1816 163.5250 0003097  53.5817 215.9102  2.13091877 70872
COSMOS 2459 (731)       
1 36400U 10007A   19021.69375978 -.00000013  00000-0  10000-3 0  9997
2 36400  65.6966  45.0749 0026555 345.8261   6.4154  2.13102200 69202
COSMOS 2461 (735)       
1 36401U 10007B   19021.76914667 -.00000013  00000-0  10000-3 0  9990
2 36401  65.6881  45.0442 0004504  56.5648 264.0547  2.13102100 69201
COSMOS 2460 (732)       
1 36402U 10007C   19022.47835381 -.00000019  00000-0  10000-3 0  9991
2 36402  65.6800  44.9858 0002365 268.7794 276.1357  2.13101611 69225
COSMOS 2464 (736)       
1 37139U 10041C   19021.96671302  .00000023  00000-0  00000+0 0  9990
2 37139  64.3931 283.7064 0025814  12.2588  87.2477  2.13096946 65283
COSMOS 2471 (701K)      
1 37372U 11009A   19021.19589020 -.00000009  00000-0  00000-0 0  9990
2 37372  65.6760  44.9726 0010181 237.6510 192.1044  2.13107696 61475
COSMOS 2474 (742)       
1 37829U 11055A   19022.03468542  .00000038  00000-0  00000+0 0  9997
2 37829  64.5170 164.4309 0006753 237.2759  76.8868  2.13101873 56850
COSMOS 2476 (744)       
1 37867U 11064A   19021.90383862  .00000038  00000-0  00000+0 0  9995
2 37867  64.4974 164.4914 0016745 235.9818  23.8919  2.13101935 56205
COSMOS 2477 (745)       
1 37868U 11064B   19021.87476860  .00000038  00000-0  00000+0 0  9993
2 37868  64.5053 164.5441 0014542 236.8634 179.5004  2.13101761 56166
COSMOS 2475 (743)       
1 37869U 11064C   19022.34514127  .00000039  00000-0  00000+0 0  9997
2 37869  64.5129 164.5251 0018357 264.7429 109.4407  2.13102022 56182
COSMOS 2485 (747)       
1 39155U 13019A   19021.90488216  .00000038  00000-0  00000+0 0  9998
2 39155  64.6661 164.6489 0017389 230.7971  74.6898  2.13101908 44677
COSMOS 2492 (754)       
1 39620U 14012A   19022.53649355 -.00000020  00000-0  10000-3 0  9999
2 39620  65.5697  44.8378 0015412 319.6136 145.4065  2.13103474 37646
COSMOS 2500 (755)       
1 40001U 14032A   19021.86309434 -.00000015  00000-0  00000+0 0  9991
2 40001  65.5102  44.8144 0007692 223.5037 306.6486  2.13102763 35845
COSMOS 2501 (702K)      
1 40315U 14075A   19022.16431505  .00000019  00000-0  00000+0 0  9998
2 40315  64.1133 284.8321 0015219 210.0080 350.5901  2.13098483 32253
COSMOS 2514 (751)       
1 41330U 16008A   19021.94445844 -.00000016  00000-0  00000+0 0  9998
2 41330  65.3124  44.8109 0011338 225.3535 188.5981  2.13103186 23012
COSMOS 2516 (753)       
1 41554U 16032A   19021.92124997  .00000021  00000-0  00000+0 0  9999
2 41554  64.3356 284.7668 0011618 224.3542  62.5147  2.13101767 20610
COSMOS 2522 (752)       
1 42939U 17055A   19021.91819485  .00000021  00000-0  00000+0 0  9995
2 42939  64.5671 284.7973 0007378 257.3003 253.6925  2.13102062 10373
